H1 CPF  1  DLR 2022 03 02 10  5612 technosat            
H2  1704205 6203    42829 2022 03 02 00 00 00 2022 03 09 00 00 00    60 1 1  0 0 0
H9
10 0 59646  50400.000000  0        908994.483       -293834.222      -6910899.431
10 0 59646  50460.000000  0        911238.810       -749300.182      -6875518.341
10 0 59646  50520.000000  0        905698.875      -1201616.309      -6811158.528
10 0 59646  50580.000000  0        892432.535      -1648820.325      -6718080.214
10 0 59646  50640.000000  0        871546.902      -2088970.191      -6596663.459
10 0 59646  50700.000000  0        843197.787      -2520152.422      -6447406.989
10 0 59646  50760.000000  0        807588.829      -2940490.453      -6270926.530
10 0 59646  50820.000000  0        764970.308      -3348152.891      -6067952.553
10 0 59646  50880.000000  0        715637.739      -3741361.553      -5839327.526
10 0 59646  50940.000000  0        659930.247      -4118399.305      -5586002.744
10 0 59646  51000.000000  0        598228.686      -4477617.709      -5309034.746
10 0 59646  51060.000000  0        530953.480      -4817444.482      -5009581.280
10 0 59646  51120.000000  0        458562.228      -5136390.677      -4688896.794
10 0 59646  51180.000000  0        381547.079      -5433057.586      -4348327.474
10 0 59646  51240.000000  0        300431.889      -5706143.271      -3989305.801
10 0 59646  51300.000000  0        215769.176      -5954448.678      -3613344.692
10 0 59646  51360.000000  0        128136.889      -6176883.307      -3222031.269
10 0 59646  51420.000000  0         38135.003      -6372470.461      -2817020.275
10 0 59646  51480.000000  0        -53618.033      -6540352.043      -2400027.095
10 0 59646  51540.000000  0       -146488.994      -6679792.789      -1972820.401
10 0 59646  51600.000000  0       -239833.693      -6790183.885      -1537214.476
10 0 59646  51660.000000  0       -333000.869      -6871045.984      -1095061.333
10 0 59646  51720.000000  0       -425336.151      -6922031.601       -648242.583
10 0 59646  51780.000000  0       -516186.058      -6942926.845       -198661.148
10 0 59646  51840.000000  0       -604902.013      -6933652.495        251767.122
10 0 59646  51900.000000  0       -690844.349      -6894264.460        701121.934
10 0 59646  51960.000000  0       -773386.295      -6824953.557       1147487.101
10 0 59646  52020.000000  0       -851917.881      -6726044.594       1588959.097
10 0 59646  52080.000000  0       -925849.763      -6597994.754       2023655.550
10 0 59646  52140.000000  0       -994616.929      -6441391.319       2449723.595
10 0 59646  52200.000000  0      -1057682.253      -6256948.784       2865348.115
10 0 59646  52260.000000  0      -1114539.852      -6045505.274       3268759.784
10 0 59646  52320.000000  0      -1164718.263      -5808018.337       3658242.773
10 0 59646  52380.000000  0      -1207783.495      -5545560.245       4032142.140
10 0 59646  52440.000000  0      -1243341.833      -5259312.754       4388870.936
10 0 59646  52500.000000  0      -1271042.378      -4950561.425       4726916.945
10 0 59646  52560.000000  0      -1290579.353      -4620689.524       5044849.094
10 0 59646  52620.000000  0      -1301694.180      -4271171.458       5341323.512
10 0 59646  52680.000000  0      -1304177.283      -3903565.763       5615089.146
10 0 59646  52740.000000  0      -1297869.599      -3519507.723       5864992.866
10 0 59646  52800.000000  0      -1282663.779      -3120701.753       6089984.050
10 0 59646  52860.000000  0      -1258505.088      -2708913.562       6289118.705
10 0 59646  52920.000000  0      -1225392.040      -2285962.189       6461563.118
10 0 59646  52980.000000  0      -1183376.764      -1853711.860       6606597.119
10 0 59646  53040.000000  0      -1132565.081      -1414063.646       6723616.887
10 0 59646  53100.000000  0      -1073116.319       -968946.977       6812137.219
10 0 59646  53160.000000  0      -1005242.852       -520311.117       6871793.278
10 0 59646  53220.000000  0       -929209.328        -70116.653       6902341.876
10 0 59646  53280.000000  0       -845331.598        379673.031       6903662.346
10 0 59646  53340.000000  0       -753975.359        827100.325       6875756.905
10 0 59646  53400.000000  0       -655554.519       1270221.865       6818750.489
10 0 59646  53460.000000  0       -550529.299       1707116.909       6732890.138
10 0 59646  53520.000000  0       -439404.086       2135895.622       6618543.910
10 0 59646  53580.000000  0       -322725.021       2554707.181       6476199.279
10 0 59646  53640.000000  0       -201077.365       2961747.679       6306461.144
10 0 59646  53700.000000  0        -75082.661       3355267.915       6110049.368
10 0 59646  53760.000000  0         54604.339       3733580.925       5887795.803
10 0 59646  53820.000000  0        187298.952       4095069.228       5640640.890
10 0 59646  53880.000000  0        322290.048       4438191.766       5369629.847
10 0 59646  53940.000000  0        458843.719       4761490.601       5075908.463
10 0 59646  54000.000000  0        596207.133       5063597.314       4760718.368
10 0 59646  54060.000000  0        733612.464       5343238.902       4425391.797
10 0 59646  54120.000000  0        870280.882       5599243.186       4071346.071
10 0 59646  54180.000000  0       1005426.698       5830543.762       3700077.888
10 0 59646  54240.000000  0       1138261.705       6036184.918       3313157.419
10 0 59646  54300.000000  0       1267999.712       6215326.184       2912221.421
10 0 59646  54360.000000  0       1393860.826       6367245.620       2498965.956
10 0 59646  54420.000000  0       1515075.686       6491342.802       2075139.422
10 0 59646  54480.000000  0       1630889.898       6587141.493       1642535.076
10 0 59646  54540.000000  0       1740568.351       6654291.523       1202983.246
10 0 59646  54600.000000  0       1843399.441       6692570.066        758343.500
10 0 59646  54660.000000  0       1938699.218       6701882.354        310496.653
10 0 59646  54720.000000  0       2025815.381       6682261.788       -138663.309
10 0 59646  54780.000000  0       2104131.138       6633869.466       -587237.368
10 0 59646  54840.000000  0       2173068.910       6556993.102      -1033329.624
10 0 59646  54900.000000  0       2232093.853       6452045.369      -1475055.418
10 0 59646  54960.000000  0       2280717.173       6319561.670      -1910549.408
10 0 59646  55020.000000  0       2318499.211       6160197.318      -2337973.552
10 0 59646  55080.000000  0       2345052.276       5974724.183      -2755524.939
10 0 59646  55140.000000  0       2360043.231       5764026.796      -3161443.478
10 0 59646  55200.000000  0       2363195.789       5529097.898      -3554019.343
10 0 59646  55260.000000  0       2354292.515       5271033.517      -3931600.136
10 0 59646  55320.000000  0       2333176.504       4991027.618      -4292597.740
10 0 59646  55380.000000  0       2299752.765       4690366.374      -4635494.866
10 0 59646  55440.000000  0       2253989.297       4370422.045      -4958851.254
10 0 59646  55500.000000  0       2195917.854       4032646.550      -5261309.486
10 0 59646  55560.000000  0       2125634.411       3678564.778      -5541600.468
10 0 59646  55620.000000  0       2043299.306       3309767.586      -5798548.558
10 0 59646  55680.000000  0       1949137.031       2927904.544      -6031076.236
10 0 59646  55740.000000  0       1843435.722       2534676.510      -6238208.346
10 0 59646  55800.000000  0       1726546.353       2131828.059      -6419075.882
10 0 59646  55860.000000  0       1598881.644       1721139.834      -6572919.364
10 0 59646  55920.000000  0       1460914.703       1304420.786      -6699091.873
10 0 59646  55980.000000  0       1313177.302        883500.281      -6797061.600
10 0 59646  56040.000000  0       1156257.854        460220.233      -6866413.954
10 0 59646  56100.000000  0        990799.115         36427.172      -6906853.237
10 0 59646  56160.000000  0        817495.605       -386035.695      -6918203.835
10 0 59646  56220.000000  0        637090.751       -805336.328      -6900410.923
10 0 59646  56280.000000  0        450373.816      -1219661.598      -6853540.773
10 0 59646  56340.000000  0        258176.574      -1627224.945      -6777780.607
10 0 59646  56400.000000  0         61369.754      -2026273.880      -6673438.092
10 0 59646  56460.000000  0       -139140.814      -2415097.486      -6540940.445
10 0 59646  56520.000000  0       -342418.284      -2792033.814      -6380832.947
10 0 59646  56580.000000  0       -547499.051      -3155476.999      -6193776.911
10 0 59646  56640.000000  0       -753397.174      -3503884.109      -5980547.275
10 0 59646  56700.000000  0       -959108.984      -3835781.796      -5742029.787
10 0 59646  56760.000000  0      -1163617.872      -4149772.707      -5479217.712
10 0 59646  56820.000000  0      -1365899.226      -4444541.622      -5193208.077
10 0 59646  56880.000000  0      -1564925.492      -4718861.270      -4885197.412
10 0 59646  56940.000000  0      -1759671.344      -4971597.760      -4556477.046
10 0 59646  57000.000000  0      -1949118.922      -5201715.629      -4208427.940
10 0 59646  57060.000000  0      -2132263.108      -5408282.443      -3842515.099
10 0 59646  57120.000000  0      -2308116.809      -5590472.958      -3460281.567
10 0 59646  57180.000000  0      -2475716.234      -5747572.801      -3063342.047
10 0 59646  57240.000000  0      -2634126.114      -5878981.663      -2653376.140
10 0 59646  57300.000000  0      -2782444.877      -5984215.975      -2232121.235
10 0 59646  57360.000000  0      -2919809.691      -6062911.043      -1801365.067
10 0 59646  57420.000000  0      -3045401.396      -6114822.607      -1362937.966
10 0 59646  57480.000000  0      -3158449.234      -6139827.784       -918704.842
10 0 59646  57540.000000  0      -3258235.365      -6137925.390       -470556.955
99
